{
    "links": {
        "self": "http://www.neowsapp.com/rest/v1/neo/3579622?api_key=iIulBulltgU6a56xZRHN4H3l9WmuAYTsLGpBGhQ2"
    },
    "id": "3579622",
    "neo_reference_id": "3579622",
    "name": "(2011 SM102)",
    "designation": "2011 SM102",
    "nasa_jpl_url": "http://ssd.jpl.nasa.gov/sbdb.cgi?sstr=3579622",
    "absolute_magnitude_h": 24.6,
    "estimated_diameter": {
        "kilometers": {
            "estimated_diameter_min": 0.0319561887,
            "estimated_diameter_max": 0.0714562102
        },
        "meters": {
            "estimated_diameter_min": 31.9561886721,
            "estimated_diameter_max": 71.4562101727
        },
        "miles": {
            "estimated_diameter_min": 0.0198566489,
            "estimated_diameter_max": 0.0444008168
        },
        "feet": {
            "estimated_diameter_min": 104.8431420431,
            "estimated_diameter_max": 234.436392583
        }
    },
    "is_potentially_hazardous_asteroid": false,
    "close_approach_data": [
        {
            "close_approach_date": "2011-09-17",
            "close_approach_date_full": "2011-Sep-17 16:02",
            "epoch_date_close_approach": 1316275320000,
            "relative_velocity": {
                "kilometers_per_second": "6.1113956088",
                "kilometers_per_hour": "22001.0241915451",
                "miles_per_hour": "13670.5808372409"
            },
            "miss_distance": {
                "astronomical": "0.0910017333",
                "lunar": "35.3996742537",
                "kilometers": "13613665.467988071",
                "miles": "8459139.4662985398"
            },
            "orbiting_body": "Earth"
        }
    ],
    "orbital_data": {
        "orbit_id": "7",
        "orbit_determination_date": "2017-04-06 08:52:40",
        "first_observation_date": "2011-09-25",
        "last_observation_date": "2011-11-01",
        "data_arc_in_days": 37,
        "observations_used": 30,
        "orbit_uncertainty": "7",
        "minimum_orbit_intersection": ".102381",
        "jupiter_tisserand_invariant": "3.250",
        "epoch_osculation": "2459000.5",
        "eccentricity": ".5549184901107505",
        "semi_major_axis": "2.474224221963258",
        "inclination": "1.679836956693985",
        "ascending_node_longitude": "109.5505628655991",
        "orbital_period": "1421.533203460525",
        "perihelion_distance": "1.101231452515961",
        "perihelion_argument": "251.2644230236571",
        "aphelion_distance": "3.847216991410556",
        "perihelion_time": "2458664.321098668038",
        "mean_anomaly": "85.13653018085643",
        "mean_motion": ".2532476899756053",
        "equinox": "J2000",
        "orbit_class": {
            "orbit_class_type": "AMO",
            "orbit_class_description": "Near-Earth asteroid orbits similar to that of 1221 Amor",
            "orbit_class_range": "1.017 AU < q (perihelion) < 1.3 AU"
        }
    },
    "is_sentry_object": false
}